ONEWEB-0667             
1 55827U 23029AH  26177.95178236 -.00000005  00000+0 -43244-4 0  9994
2 55827  87.9200 272.4850 0001830 101.1088 259.0251 13.20772468162434
ONEWEB-0669             
1 55828U 23029AJ  26177.71945554  .00000059  00000+0  11303-3 0  9991
2 55828  87.9195 272.5422 0002052  83.3675 276.7692 13.20773091162409
ONEWEB-0670             
1 55829U 23029AK  26177.80311626 -.00000207  00000+0 -59304-3 0  9999
2 55829  87.8961 287.8239 0001554  95.9095 264.2212 13.14500818160693
ONEWEB-0671             
1 55830U 23029AL  26177.84387081  .00000016  00000+0  72658-5 0  9998
2 55830  87.9178 303.0522 0001744 102.0774 258.0554 13.19724811160176
ONEWEB-0672             
1 55831U 23029AM  26177.79015393 -.00000059  00000+0 -17620-3 0  9992
2 55831  87.9194 272.5212 0002219  95.8256 264.3130 13.20772997162412
ONEWEB-0673             
1 55832U 23029AN  26177.89677023 -.00000015  00000+0 -70957-4 0  9993
2 55832  87.9183 303.0338 0001754  99.3930 260.7402 13.19723529160180
ONEWEB-0674             
1 55833U 23029AP  26177.84751702  .00000083  00000+0  18942-3 0  9994
2 55833  87.8961 287.7914 0001573  94.3618 265.7692 13.14504290160687
ONEWEB-0675             
1 55834U 23029AQ  26177.91180058 -.00000039  00000+0 -12978-3 0  9999
2 55834  87.9176 303.0397 0002215 101.2986 258.8396 13.19724626160208
ONEWEB-0720             
1 55835U 23029AR  26177.90389630 -.00000029  00000+0 -10468-3 0  9997
2 55835  87.9176 303.0414 0001782 108.8831 251.2495 13.19725019160124
ONEWEB-0537             
1 56046U 23043A   26177.84621136 -.00000014  00000+0 -70657-4 0  9992
2 56046  87.9087 226.8536 0002292  94.7885 265.3507 13.16595072160239
ONEWEB-0538             
1 56047U 23043B   26177.83987598 -.00000009  00000+0 -56926-4 0  9996
2 56047  87.9091 226.8573 0002230 101.7295 258.4086 13.16595249160244
ONEWEB-0546             
1 56048U 23043C   26177.82720988  .00000051  00000+0  10066-3 0  9993
2 56048  87.9091 226.8598 0002688  88.4915 271.6523 13.16595409160239
ONEWEB-0547             
1 56049U 23043D   26177.93726703  .00000004  00000+0 -21202-4 0  9991
2 56049  87.9251 242.0345 0002105 103.6523 256.4845 13.21825952159519
ONEWEB-0548             
1 56050U 23043E   26177.85174451 -.00000091  00000+0 -27102-3 0  9992
2 56050  87.9089 226.8510 0001832  84.7736 275.3604 13.16593060160235
ONEWEB-0549             
1 56051U 23043F   26177.93138423 -.00000049  00000+0 -15113-3 0  9993
2 56051  87.9247 242.0417 0002314 106.2403 253.8986 13.21825888159510
ONEWEB-0550             
1 56052U 23043G   26177.91793760 -.00001175  00000+0 -28769-2 0  9994
2 56052  87.9250 242.0422 0002119  92.1184 268.0193 13.21832001159516
ONEWEB-0551             
1 56053U 23043H   26177.73844453  .00000130  00000+0  31092-3 0  9993
2 56053  87.8996 257.3235 0002121 109.5086 250.6274 13.15549882157656
ONEWEB-0552             
1 56054U 23043J   26177.91286414 -.00000042  00000+0 -13201-3 0  9997
2 56054  87.9246 242.0484 0001898 102.7030 257.4316 13.21825106159519
ONEWEB-0553             
1 56055U 23043K   26177.83354156  .00000040  00000+0  70370-4 0  9995
2 56055  87.9090 226.8588 0002343  88.6380 271.5019 13.16595306160247
ONEWEB-0554             
1 56056U 23043L   26177.89687922  .00000150  00000+0  35788-3 0  9997
2 56056  87.9088 226.8552 0001783  83.8968 276.2366 13.16595944160236
ONEWEB-0555             
1 56057U 23043M   26177.85886416 -.00000141  00000+0 -40224-3 0  9996
2 56057  87.9092 226.8512 0002575  87.9965 272.1461 13.16592543160233
ONEWEB-0557             
1 56058U 23043N   26177.87312073 -.00000032  00000+0 -11751-3 0  9994
2 56058  87.9089 226.8581 0002304  63.1455 296.9911 13.16594819160238
ONEWEB-0558             
1 56059U 23043P   26177.67904761  .00000056  00000+0  10407-3 0  9995
2 56059  87.9248 242.0900 0002301 104.0130 256.1260 13.21824436159491
ONEWEB-0559             
1 56060U 23043Q   26177.89435854  .00000082  00000+0  16618-3 0  9992
2 56060  87.9249 242.0425 0002035 104.8673 255.2687 13.21825811159536
ONEWEB-0566             
1 56061U 23043R   26177.88763705  .00000048  00000+0  85803-4 0  9996
2 56061  87.9248 242.0418 0002054 107.7357 252.4001 13.21826881159515
ONEWEB-0568             
1 56062U 23043S   26177.89054801  .00000444  00000+0  11284-2 0  9998
2 56062  87.9088 226.8444 0001752  94.1298 266.0033 13.16594737160259
ONEWEB-0574             
1 56063U 23043T   26177.88092109 -.00000025  00000+0 -92387-4 0  9993
2 56063  87.9259 242.0472 0002009  92.6540 267.4824 13.21824261159558
ONEWEB-0575             
1 56064U 23043U   26177.88421556  .00000009  00000+0 -94787-5 0  9994
2 56064  87.9089 226.8419 0002100  83.8741 276.2629 13.16593760160248
ONEWEB-0576             
1 56065U 23043V   26177.86520878 -.00000055  00000+0 -17860-3 0  9997
2 56065  87.9092 226.8538 0002094  89.8464 270.2906 13.16594386160231
ONEWEB-0577             
1 56066U 23043W   26177.87155175 -.00000026  00000+0 -10101-3 0  9992
2 56066  87.9090 226.8501 0001893  73.9614 286.1725 13.16593817160263
