OBJECT_NAME,OBJECT_ID,EPOCH,MEAN_MOTION,ECCENTRICITY,INCLINATION,RA_OF_ASC_NODE,ARG_OF_PERICENTER,MEAN_ANOMALY,EPHEMERIS_TYPE,CLASSIFICATION_TYPE,NORAD_CAT_ID,ELEMENT_SET_NO,REV_AT_EPOCH,BSTAR,MEAN_MOTION_DOT,MEAN_MOTION_DDOT
ONEWEB-0667,2023-029AH,2026-06-26T22:50:33.995904,13.20772468,.00018304,87.9200,272.4850,101.1088,259.0251,0,U,55827,999,16243,-.43244333E-4,-.5E-7,0
ONEWEB-0669,2023-029AJ,2026-06-26T17:16:00.958656,13.20773091,.0002052,87.9195,272.5422,83.3675,276.7692,0,U,55828,999,16240,.1130282E-3,.59E-6,0
ONEWEB-0670,2023-029AK,2026-06-26T19:16:29.244864,13.14500818,.00015543,87.8961,287.8239,95.9095,264.2212,0,U,55829,999,16069,-.59304497E-3,-.207E-5,0
ONEWEB-0671,2023-029AL,2026-06-26T20:15:10.437984,13.19724811,.00017442,87.9178,303.0522,102.0774,258.0554,0,U,55830,999,16017,.7265796E-5,.16E-6,0
ONEWEB-0672,2023-029AM,2026-06-26T18:57:49.299552,13.20772997,.00022197,87.9194,272.5212,95.8256,264.3130,0,U,55831,999,16241,-.17619537E-3,-.59E-6,0
ONEWEB-0673,2023-029AN,2026-06-26T21:31:20.947872,13.19723529,.00017547,87.9183,303.0338,99.3930,260.7402,0,U,55832,999,16018,-.70957078E-4,-.15E-6,0
ONEWEB-0674,2023-029AP,2026-06-26T20:20:25.470528,13.14504290,.00015733,87.8961,287.7914,94.3618,265.7692,0,U,55833,999,16068,.18942047E-3,.83E-6,0
ONEWEB-0675,2023-029AQ,2026-06-26T21:52:59.570112,13.19724626,.00022158,87.9176,303.0397,101.2986,258.8396,0,U,55834,999,16020,-.12977519E-3,-.39E-6,0
ONEWEB-0720,2023-029AR,2026-06-26T21:41:36.640320,13.19725019,.00017829,87.9176,303.0414,108.8831,251.2495,0,U,55835,999,16012,-.10467596E-3,-.29E-6,0
ONEWEB-0537,2023-043A,2026-06-26T20:18:32.661504,13.16595072,.00022927,87.9087,226.8536,94.7885,265.3507,0,U,56046,999,16023,-.70656513E-4,-.14E-6,0
ONEWEB-0538,2023-043B,2026-06-26T20:09:25.284672,13.16595249,.00022307,87.9091,226.8573,101.7295,258.4086,0,U,56047,999,16024,-.56926199E-4,-.9E-7,0
ONEWEB-0546,2023-043C,2026-06-26T19:51:10.933632,13.16595409,.00026884,87.9091,226.8598,88.4915,271.6523,0,U,56048,999,16023,.10066401E-3,.51E-6,0
ONEWEB-0547,2023-043D,2026-06-26T22:29:39.871392,13.21825952,.00021056,87.9251,242.0345,103.6523,256.4845,0,U,56049,999,15951,-.21202306E-4,.4E-7,0
ONEWEB-0548,2023-043E,2026-06-26T20:26:30.725664,13.16593060,.0001832,87.9089,226.8510,84.7736,275.3604,0,U,56050,999,16023,-.27101782E-3,-.91E-6,0
ONEWEB-0549,2023-043F,2026-06-26T22:21:11.597472,13.21825888,.00023145,87.9247,242.0417,106.2403,253.8986,0,U,56051,999,15951,-.15113472E-3,-.49E-6,0
ONEWEB-0550,2023-043G,2026-06-26T22:01:49.808640,13.21832001,.00021192,87.9250,242.0422,92.1184,268.0193,0,U,56052,999,15951,-.2876858E-2,-.1175E-4,0
ONEWEB-0551,2023-043H,2026-06-26T17:43:21.607392,13.15549882,.0002121,87.8996,257.3235,109.5086,250.6274,0,U,56053,999,15765,.3109163E-3,.13E-5,0
ONEWEB-0552,2023-043J,2026-06-26T21:54:31.461696,13.21825106,.0001898,87.9246,242.0484,102.7030,257.4316,0,U,56054,999,15951,-.13200712E-3,-.42E-6,0
ONEWEB-0553,2023-043K,2026-06-26T20:00:17.990784,13.16595306,.0002343,87.9090,226.8588,88.6380,271.5019,0,U,56055,999,16024,.7037047E-4,.4E-6,0
ONEWEB-0554,2023-043L,2026-06-26T21:31:30.364608,13.16595944,.0001783,87.9088,226.8552,83.8968,276.2366,0,U,56056,999,16023,.3578816E-3,.15E-5,0
ONEWEB-0555,2023-043M,2026-06-26T20:36:45.863424,13.16592543,.00025757,87.9092,226.8512,87.9965,272.1461,0,U,56057,999,16023,-.4022395E-3,-.141E-5,0
ONEWEB-0557,2023-043N,2026-06-26T20:57:17.631072,13.16594819,.00023049,87.9089,226.8581,63.1455,296.9911,0,U,56058,999,16023,-.1175089E-3,-.32E-6,0
ONEWEB-0558,2023-043P,2026-06-26T16:17:49.713504,13.21824436,.00023017,87.9248,242.0900,104.0130,256.1260,0,U,56059,999,15949,.10407221E-3,.56E-6,0
ONEWEB-0559,2023-043Q,2026-06-26T21:27:52.577856,13.21825811,.00020358,87.9249,242.0425,104.8673,255.2687,0,U,56060,999,15953,.16617627E-3,.82E-6,0
ONEWEB-0566,2023-043R,2026-06-26T21:18:11.841120,13.21826881,.00020549,87.9248,242.0418,107.7357,252.4001,0,U,56061,999,15951,.85803391E-4,.48E-6,0
ONEWEB-0568,2023-043S,2026-06-26T21:22:23.348064,13.16594737,.00017526,87.9088,226.8444,94.1298,266.0033,0,U,56062,999,16025,.11284006E-2,.444E-5,0
ONEWEB-0574,2023-043T,2026-06-26T21:08:31.582176,13.21824261,.00020092,87.9259,242.0472,92.6540,267.4824,0,U,56063,999,15955,-.92387312E-4,-.25E-6,0
ONEWEB-0575,2023-043U,2026-06-26T21:13:16.224384,13.16593760,.00021007,87.9089,226.8419,83.8741,276.2629,0,U,56064,999,16024,-.9478663E-5,.9E-7,0
ONEWEB-0576,2023-043V,2026-06-26T20:45:54.038592,13.16594386,.00020942,87.9092,226.8538,89.8464,270.2906,0,U,56065,999,16023,-.17860293E-3,-.55E-6,0
ONEWEB-0577,2023-043W,2026-06-26T20:55:02.071200,13.16593817,.00018937,87.9090,226.8501,73.9614,286.1725,0,U,56066,999,16026,-.10100612E-3,-.26E-6,0
